METOP-C                 
1 43689U 18087A   26117.24810990  .00000111  00000+0  70550-4 0  9997
2 43689  98.6678 177.7740 0000787  39.8270 320.2965 14.21512034387592
GEO-KOMPSAT-2A          
1 43823U 18100A   26117.23239168 -.00000354  00000+0  00000+0 0  9992
2 43823   0.0561  68.1763 0002033 358.2965   0.6752  1.00270859 27114
METEOR-M2 2             
1 44387U 19038A   26117.24569358  .00000193  00000+0  10347-3 0  9996
2 44387  98.9131 103.7859 0001767 125.9450 234.1892 14.24351337354047
ARKTIKA-M 1             
1 47719U 21016A   26113.16409645 -.00000101  00000+0  00000+0 0  9997
2 47719  63.2246  65.5569 7266494 269.6808  14.9538  2.00609676 37686
FENGYUN 3E              
1 49008U 21062A   26117.32448037  .00000204  00000+0  11664-3 0  9996
2 49008  98.7511 121.2992 0000838 190.2752 169.8407 14.19900454249361
GOES 18                 
1 51850U 22021A   26116.96599441  .00000000  00000+0  00000+0 0  9997
2 51850   0.0104  83.6605 0000668   3.3583 338.7000  1.00271663  6076
NOAA 21 (JPSS-2)        
1 54234U 22150A   26117.28573555  .00000082  00000+0  59672-4 0  9997
2 54234  98.7035  56.9369 0001780  20.5232 339.6016 14.19555943179326
METEOSAT-12 (MTG-I1)    
1 54743U 22170C   26117.22267126 -.00000018  00000+0  00000+0 0  9998
2 54743   0.7245  22.4777 0001107 335.3296 297.2322  1.00269708 12465
TIANMU-1 03             
1 55973U 23039A   26117.25834154  .00018138  00000+0  37573-3 0  9993
2 55973  97.5217 289.2973 0001649 277.5863  82.5198 15.45813969172969
TIANMU-1 04             
1 55974U 23039B   26117.26660846  .00019240  00000+0  39102-3 0  9995
2 55974  97.5152 288.4586 0002339 271.7089  88.3892 15.46360394172978
TIANMU-1 05             
1 55975U 23039C   26117.30157682  .00018083  00000+0  37537-3 0  9994
2 55975  97.5198 288.9755 0001599 320.9022  39.2111 15.45753132172955
TIANMU-1 06             
1 55976U 23039D   26117.26720375  .00018946  00000+0  38605-3 0  9990
2 55976  97.5206 289.5258 0001804 307.4132  52.6952 15.46286969172976
FENGYUN 3G              
1 56232U 23055A   26117.34836803  .00027922  00000+0  45356-3 0  9992
2 56232  49.9926 248.2170 0005961 326.3537  33.7051 15.52430236172104
METEOR-M2 3             
1 57166U 23091A   26117.29876321  .00000012  00000+0  24229-4 0  9990
2 57166  98.6122 173.3078 0003220 334.1849  25.9169 14.24042335147274
TIANMU-1 07             
1 57399U 23101A   26117.26696603  .00007407  00000+0  26343-3 0  9993
2 57399  97.2640 169.1149 0001341  10.2967 349.8300 15.29266557153866
TIANMU-1 08             
1 57400U 23101B   26117.23445238  .00009371  00000+0  33221-3 0  9994
2 57400  97.2629 168.8593 0002203 314.5422  45.5638 15.29297476153856
TIANMU-1 09             
1 57401U 23101C   26117.28359633  .00007890  00000+0  28010-3 0  9997
2 57401  97.2587 168.3510 0001833   2.1268 357.9980 15.29304025153860
