[{"OBJECT_NAME":"METOP-C","OBJECT_ID":"2018-087A","EPOCH":"2026-04-27T05:57:16.695360","MEAN_MOTION":14.21512034,"ECCENTRICITY":7.878e-5,"INCLINATION":98.6678,"RA_OF_ASC_NODE":177.774,"ARG_OF_PERICENTER":39.827,"MEAN_ANOMALY":320.2965,"EPHEMERIS_TYPE":0,"CLASSIFICATION_TYPE":"U","NORAD_CAT_ID":43689,"ELEMENT_SET_NO":999,"REV_AT_EPOCH":38759,"BSTAR":7.0549542e-5,"MEAN_MOTION_DOT":1.11e-6,"MEAN_MOTION_DDOT":0},{"OBJECT_NAME":"GEO-KOMPSAT-2A","OBJECT_ID":"2018-100A","EPOCH":"2026-04-27T05:34:38.641152","MEAN_MOTION":1.00270859,"ECCENTRICITY":0.00020336,"INCLINATION":0.0561,"RA_OF_ASC_NODE":68.1763,"ARG_OF_PERICENTER":358.2965,"MEAN_ANOMALY":0.6752,"EPHEMERIS_TYPE":0,"CLASSIFICATION_TYPE":"U","NORAD_CAT_ID":43823,"ELEMENT_SET_NO":999,"REV_AT_EPOCH":2711,"BSTAR":0,"MEAN_MOTION_DOT":-3.54e-6,"MEAN_MOTION_DDOT":0},{"OBJECT_NAME":"METEOR-M2 2","OBJECT_ID":"2019-038A","EPOCH":"2026-04-27T05:53:47.925312","MEAN_MOTION":14.24351337,"ECCENTRICITY":0.00017677,"INCLINATION":98.9131,"RA_OF_ASC_NODE":103.7859,"ARG_OF_PERICENTER":125.945,"MEAN_ANOMALY":234.1892,"EPHEMERIS_TYPE":0,"CLASSIFICATION_TYPE":"U","NORAD_CAT_ID":44387,"ELEMENT_SET_NO":999,"REV_AT_EPOCH":35404,"BSTAR":0.00010346559,"MEAN_MOTION_DOT":1.93e-6,"MEAN_MOTION_DDOT":0},{"OBJECT_NAME":"ARKTIKA-M 1","OBJECT_ID":"2021-016A","EPOCH":"2026-04-23T03:56:17.933280","MEAN_MOTION":2.00609676,"ECCENTRICITY":0.72664948,"INCLINATION":63.2246,"RA_OF_ASC_NODE":65.5569,"ARG_OF_PERICENTER":269.6808,"MEAN_ANOMALY":14.9538,"EPHEMERIS_TYPE":0,"CLASSIFICATION_TYPE":"U","NORAD_CAT_ID":47719,"ELEMENT_SET_NO":999,"REV_AT_EPOCH":3768,"BSTAR":0,"MEAN_MOTION_DOT":-1.01e-6,"MEAN_MOTION_DDOT":0},{"OBJECT_NAME":"FENGYUN 3E","OBJECT_ID":"2021-062A","EPOCH":"2026-04-27T07:47:15.103968","MEAN_MOTION":14.19900454,"ECCENTRICITY":8.382e-5,"INCLINATION":98.7511,"RA_OF_ASC_NODE":121.2992,"ARG_OF_PERICENTER":190.2752,"MEAN_ANOMALY":169.8407,"EPHEMERIS_TYPE":0,"CLASSIFICATION_TYPE":"U","NORAD_CAT_ID":49008,"ELEMENT_SET_NO":999,"REV_AT_EPOCH":24936,"BSTAR":0.00011663765,"MEAN_MOTION_DOT":2.04e-6,"MEAN_MOTION_DDOT":0},{"OBJECT_NAME":"GOES 18","OBJECT_ID":"2022-021A","EPOCH":"2026-04-26T23:11:01.917024","MEAN_MOTION":1.00271663,"ECCENTRICITY":6.689e-5,"INCLINATION":0.0104,"RA_OF_ASC_NODE":83.6605,"ARG_OF_PERICENTER":3.3583,"MEAN_ANOMALY":338.7,"EPHEMERIS_TYPE":0,"CLASSIFICATION_TYPE":"U","NORAD_CAT_ID":51850,"ELEMENT_SET_NO":999,"REV_AT_EPOCH":607,"BSTAR":0,"MEAN_MOTION_DOT":0,"MEAN_MOTION_DDOT":0},{"OBJECT_NAME":"NOAA 21 (JPSS-2)","OBJECT_ID":"2022-150A","EPOCH":"2026-04-27T06:51:27.551520","MEAN_MOTION":14.19555943,"ECCENTRICITY":0.000178,"INCLINATION":98.7035,"RA_OF_ASC_NODE":56.9369,"ARG_OF_PERICENTER":20.5232,"MEAN_ANOMALY":339.6016,"EPHEMERIS_TYPE":0,"CLASSIFICATION_TYPE":"U","NORAD_CAT_ID":54234,"ELEMENT_SET_NO":999,"REV_AT_EPOCH":17932,"BSTAR":5.9672147e-5,"MEAN_MOTION_DOT":8.2e-7,"MEAN_MOTION_DDOT":0},{"OBJECT_NAME":"METEOSAT-12 (MTG-I1)","OBJECT_ID":"2022-170C","EPOCH":"2026-04-27T05:20:38.796864","MEAN_MOTION":1.00269708,"ECCENTRICITY":0.00011079,"INCLINATION":0.7245,"RA_OF_ASC_NODE":22.4777,"ARG_OF_PERICENTER":335.3296,"MEAN_ANOMALY":297.2322,"EPHEMERIS_TYPE":0,"CLASSIFICATION_TYPE":"U","NORAD_CAT_ID":54743,"ELEMENT_SET_NO":999,"REV_AT_EPOCH":1246,"BSTAR":0,"MEAN_MOTION_DOT":-1.8e-7,"MEAN_MOTION_DDOT":0},{"OBJECT_NAME":"TIANMU-1 03","OBJECT_ID":"2023-039A","EPOCH":"2026-04-27T06:12:00.709056","MEAN_MOTION":15.45813969,"ECCENTRICITY":0.00016493,"INCLINATION":97.5217,"RA_OF_ASC_NODE":289.2973,"ARG_OF_PERICENTER":277.5863,"MEAN_ANOMALY":82.5198,"EPHEMERIS_TYPE":0,"CLASSIFICATION_TYPE":"U","NORAD_CAT_ID":55973,"ELEMENT_SET_NO":999,"REV_AT_EPOCH":17296,"BSTAR":0.00037572866,"MEAN_MOTION_DOT":0.00018138,"MEAN_MOTION_DDOT":0},{"OBJECT_NAME":"TIANMU-1 04","OBJECT_ID":"2023-039B","EPOCH":"2026-04-27T06:23:54.970944","MEAN_MOTION":15.46360394,"ECCENTRICITY":0.00023396,"INCLINATION":97.5152,"RA_OF_ASC_NODE":288.4586,"ARG_OF_PERICENTER":271.7089,"MEAN_ANOMALY":88.3892,"EPHEMERIS_TYPE":0,"CLASSIFICATION_TYPE":"U","NORAD_CAT_ID":55974,"ELEMENT_SET_NO":999,"REV_AT_EPOCH":17297,"BSTAR":0.00039101964,"MEAN_MOTION_DOT":0.0001924,"MEAN_MOTION_DDOT":0},{"OBJECT_NAME":"TIANMU-1 05","OBJECT_ID":"2023-039C","EPOCH":"2026-04-27T07:14:16.237248","MEAN_MOTION":15.45753132,"ECCENTRICITY":0.00015996,"INCLINATION":97.5198,"RA_OF_ASC_NODE":288.9755,"ARG_OF_PERICENTER":320.9022,"MEAN_ANOMALY":39.2111,"EPHEMERIS_TYPE":0,"CLASSIFICATION_TYPE":"U","NORAD_CAT_ID":55975,"ELEMENT_SET_NO":999,"REV_AT_EPOCH":17295,"BSTAR":0.00037537424,"MEAN_MOTION_DOT":0.00018083,"MEAN_MOTION_DDOT":0},{"OBJECT_NAME":"TIANMU-1 06","OBJECT_ID":"2023-039D","EPOCH":"2026-04-27T06:24:46.404000","MEAN_MOTION":15.46286969,"ECCENTRICITY":0.00018049,"INCLINATION":97.5206,"RA_OF_ASC_NODE":289.5258,"ARG_OF_PERICENTER":307.4132,"MEAN_ANOMALY":52.6952,"EPHEMERIS_TYPE":0,"CLASSIFICATION_TYPE":"U","NORAD_CAT_ID":55976,"ELEMENT_SET_NO":999,"REV_AT_EPOCH":17297,"BSTAR":0.00038605143,"MEAN_MOTION_DOT":0.00018946,"MEAN_MOTION_DDOT":0},{"OBJECT_NAME":"FENGYUN 3G","OBJECT_ID":"2023-055A","EPOCH":"2026-04-27T08:21:38.997792","MEAN_MOTION":15.52430236,"ECCENTRICITY":0.00059611,"INCLINATION":49.9926,"RA_OF_ASC_NODE":248.217,"ARG_OF_PERICENTER":326.3537,"MEAN_ANOMALY":33.7051,"EPHEMERIS_TYPE":0,"CLASSIFICATION_TYPE":"U","NORAD_CAT_ID":56232,"ELEMENT_SET_NO":999,"REV_AT_EPOCH":17210,"BSTAR":0.0004535559,"MEAN_MOTION_DOT":0.00027922,"MEAN_MOTION_DDOT":0},{"OBJECT_NAME":"METEOR-M2 3","OBJECT_ID":"2023-091A","EPOCH":"2026-04-27T07:10:13.141344","MEAN_MOTION":14.24042335,"ECCENTRICITY":0.00032204,"INCLINATION":98.6122,"RA_OF_ASC_NODE":173.3078,"ARG_OF_PERICENTER":334.1849,"MEAN_ANOMALY":25.9169,"EPHEMERIS_TYPE":0,"CLASSIFICATION_TYPE":"U","NORAD_CAT_ID":57166,"ELEMENT_SET_NO":999,"REV_AT_EPOCH":14727,"BSTAR":2.422905e-5,"MEAN_MOTION_DOT":1.2e-7,"MEAN_MOTION_DDOT":0},{"OBJECT_NAME":"TIANMU-1 07","OBJECT_ID":"2023-101A","EPOCH":"2026-04-27T06:24:25.864992","MEAN_MOTION":15.29266557,"ECCENTRICITY":0.00013419,"INCLINATION":97.264,"RA_OF_ASC_NODE":169.1149,"ARG_OF_PERICENTER":10.2967,"MEAN_ANOMALY":349.83,"EPHEMERIS_TYPE":0,"CLASSIFICATION_TYPE":"U","NORAD_CAT_ID":57399,"ELEMENT_SET_NO":999,"REV_AT_EPOCH":15386,"BSTAR":0.00026343156,"MEAN_MOTION_DOT":7.407e-5,"MEAN_MOTION_DDOT":0},{"OBJECT_NAME":"TIANMU-1 08","OBJECT_ID":"2023-101B","EPOCH":"2026-04-27T05:37:36.685632","MEAN_MOTION":15.29297476,"ECCENTRICITY":0.00022038,"INCLINATION":97.2629,"RA_OF_ASC_NODE":168.8593,"ARG_OF_PERICENTER":314.5422,"MEAN_ANOMALY":45.5638,"EPHEMERIS_TYPE":0,"CLASSIFICATION_TYPE":"U","NORAD_CAT_ID":57400,"ELEMENT_SET_NO":999,"REV_AT_EPOCH":15385,"BSTAR":0.00033221038,"MEAN_MOTION_DOT":9.371e-5,"MEAN_MOTION_DDOT":0},{"OBJECT_NAME":"TIANMU-1 09","OBJECT_ID":"2023-101C","EPOCH":"2026-04-27T06:48:22.722912","MEAN_MOTION":15.29304025,"ECCENTRICITY":0.00018334,"INCLINATION":97.2587,"RA_OF_ASC_NODE":168.351,"ARG_OF_PERICENTER":2.1268,"MEAN_ANOMALY":357.998,"EPHEMERIS_TYPE":0,"CLASSIFICATION_TYPE":"U","NORAD_CAT_ID":57401,"ELEMENT_SET_NO":999,"REV_AT_EPOCH":15386,"BSTAR":0.00028009881,"MEAN_MOTION_DOT":7.89e-5,"MEAN_MOTION_DDOT":0}]
